[{"OBJECT_NAME":"BANE","OBJECT_ID":"2023-185D","EPOCH":"2026-03-09T22:38:54.916224","MEAN_MOTION":15.6846319,"ECCENTRICITY":0.00050193,"INCLINATION":97.3445,"RA_OF_ASC_NODE":151.472,"ARG_OF_PERICENTER":176.385,"MEAN_ANOMALY":183.7448,"EPHEMERIS_TYPE":0,"CLASSIFICATION_TYPE":"U","NORAD_CAT_ID":58465,"ELEMENT_SET_NO":999,"REV_AT_EPOCH":12713,"BSTAR":0.00097597303,"MEAN_MOTION_DOT":0.00111172,"MEAN_MOTION_DDOT":0},{"OBJECT_NAME":"STARLINK-11383 [DTC]","OBJECT_ID":"2024-204K","EPOCH":"2026-03-09T02:17:55.106880","MEAN_MOTION":15.69695686,"ECCENTRICITY":0.00013179,"INCLINATION":53.1598,"RA_OF_ASC_NODE":359.0163,"ARG_OF_PERICENTER":104.8026,"MEAN_ANOMALY":255.3138,"EPHEMERIS_TYPE":0,"CLASSIFICATION_TYPE":"U","NORAD_CAT_ID":61883,"ELEMENT_SET_NO":999,"REV_AT_EPOCH":7682,"BSTAR":2.156602e-6,"MEAN_MOTION_DOT":-3.28e-6,"MEAN_MOTION_DDOT":0}]
